*******************************************************************************
Ephemeris / WWW_USER Mon Mar 24 07:41:29 2025 Pasadena, USA      / Horizons    
*******************************************************************************
Target body name: (2017 SN16)                     {source: JPL#20}
Center body name: Earth (399)                     {source: DE441}
Center-site name: Mauna Kea
*******************************************************************************
Start time      : A.D. 2018-Nov-11 03:53:00.0000 UT      
Stop  time      : A.D. 2018-Nov-11 16:18:00.0000 UT      
Step-size       : 1 minutes
*******************************************************************************
Target pole/equ : undefined
Target radii    : undefined                                                    
Center geodetic : 204.5278, 19.8260847, 4.21024   {E-lon(deg),Lat(deg),Alt(km)}
Center cylindric: 204.5278, 6006.35451, 2151.0229 {E-lon(deg),Dxy(km),Dz(km)}
Center pole/equ : ITRF93                          {East-longitude positive}
Center radii    : 6378.137, 6378.137, 6356.752 km {Equator_a, b, pole_c}       
Target primary  : Sun
Vis. interferer : MOON (R_eq= 1737.400) km        {source: DE441}
Rel. light bend : Sun                             {source: DE441}
Rel. lght bnd GM: 1.3271E+11 km^3/s^2                                          
Small-body perts: Yes                             {source: SB441-N16}
Atmos refraction: NO (AIRLESS)
RA format       : HMS
Time format     : CAL 
Calendar mode   : Mixed Julian/Gregorian
RTS-only print  : NO       
EOP file        : eop.250321.p250617                                           
EOP coverage    : DATA-BASED 1962-JAN-20 TO 2025-MAR-21. PREDICTS-> 2025-JUN-16
Units conversion: 1 au= 149597870.700 km, c= 299792.458 km/s, 1 day= 86400.0 s 
Table cut-offs 1: Elevation (-90.0deg=NO ),Airmass (>38.000=NO), Daylight (YES)
Table cut-offs 2: Solar elongation (  0.0,180.0=NO ),Local Hour Angle( 0.0=NO )
Table cut-offs 3: RA/DEC angular rate (     0.0=NO )                           
*******************************************************************************
Initial IAU76/J2000 heliocentric ecliptic osculating elements (au, days, deg.):
  EPOCH=  2458305.5 ! 2018-Jul-06.00 (TDB)         Residual RMS= .23751        
   EC= .1454884975659386   QR= .8682464985612274   TP= 2458145.5722438502      
   OM= 2.759719470837934   W=  137.1017088998531   IN= 13.38264682844635       
  Equivalent ICRF heliocentric cartesian coordinates (au, au/d):
   X= 5.756755401261899E-01  Y=-7.953424559592890E-01  Z=-6.031561894536019E-01
  VX= 1.332076113263395E-02 VY= 5.454663564585547E-03 VZ= 3.896229736425836E-03
Asteroid physical parameters (km, seconds, rotational period in hours):        
   GM= n.a.                RAD= n.a.               ROTPER= n.a.                
   H= 23.34                G= .150                 B-V= n.a.                   
                           ALBEDO= n.a.            STYP= n.a.                  
*******************************************************************************
 Date__(UT)__HR:MN     R.A._________(ICRF)_________DEC
******************************************************
$$SOE
 2018-Nov-11 05:56  m  20 36 45.362184 +26 19 34.41993
 2018-Nov-11 05:57  m  20 36 45.318426 +26 19 35.37127
 2018-Nov-11 05:58  m  20 36 45.274700 +26 19 36.32233
 2018-Nov-11 05:59  m  20 36 45.231008 +26 19 37.27310
 2018-Nov-11 06:00  m  20 36 45.187349 +26 19 38.22359
 2018-Nov-11 06:01  m  20 36 45.143724 +26 19 39.17379
 2018-Nov-11 06:02  m  20 36 45.100133 +26 19 40.12371
 2018-Nov-11 06:03  m  20 36 45.056576 +26 19 41.07334
 2018-Nov-11 06:04  m  20 36 45.013053 +26 19 42.02270
 2018-Nov-11 06:05  m  20 36 44.969565 +26 19 42.97177
 2018-Nov-11 06:06  m  20 36 44.926111 +26 19 43.92057
 2018-Nov-11 06:07  m  20 36 44.882692 +26 19 44.86908
 2018-Nov-11 06:08  m  20 36 44.839309 +26 19 45.81732
 2018-Nov-11 06:09  m  20 36 44.795960 +26 19 46.76528
 2018-Nov-11 06:10  m  20 36 44.752648 +26 19 47.71296
 2018-Nov-11 06:11  m  20 36 44.709370 +26 19 48.66037
 2018-Nov-11 06:12  m  20 36 44.666129 +26 19 49.60750
 2018-Nov-11 06:13  m  20 36 44.622924 +26 19 50.55436
 2018-Nov-11 06:14  m  20 36 44.579755 +26 19 51.50095
 2018-Nov-11 06:15  m  20 36 44.536622 +26 19 52.44727
 2018-Nov-11 06:16  m  20 36 44.493526 +26 19 53.39331
 2018-Nov-11 06:17  m  20 36 44.450467 +26 19 54.33909
 2018-Nov-11 06:18  m  20 36 44.407445 +26 19 55.28459
 2018-Nov-11 06:19  m  20 36 44.364459 +26 19 56.22983
 2018-Nov-11 06:20  m  20 36 44.321512 +26 19 57.17480
 2018-Nov-11 06:21  m  20 36 44.278602 +26 19 58.11950
 2018-Nov-11 06:22  m  20 36 44.235729 +26 19 59.06394
 2018-Nov-11 06:23  m  20 36 44.192895 +26 20 00.00812
 2018-Nov-11 06:24  m  20 36 44.150098 +26 20 00.95203
 2018-Nov-11 06:25  m  20 36 44.107340 +26 20 01.89568
 2018-Nov-11 06:26  m  20 36 44.064621 +26 20 02.83906
 2018-Nov-11 06:27  m  20 36 44.021940 +26 20 03.78219
 2018-Nov-11 06:28  m  20 36 43.979297 +26 20 04.72506
 2018-Nov-11 06:29  m  20 36 43.936694 +26 20 05.66767
 2018-Nov-11 06:30  m  20 36 43.894130 +26 20 06.61002
 2018-Nov-11 06:31  m  20 36 43.851606 +26 20 07.55211
 2018-Nov-11 06:32  m  20 36 43.809121 +26 20 08.49395
 2018-Nov-11 06:33  m  20 36 43.766675 +26 20 09.43554
 2018-Nov-11 06:34  m  20 36 43.724270 +26 20 10.37687
 2018-Nov-11 06:35  m  20 36 43.681905 +26 20 11.31795
 2018-Nov-11 06:36  m  20 36 43.639580 +26 20 12.25877
 2018-Nov-11 06:37  m  20 36 43.597295 +26 20 13.19935
 2018-Nov-11 06:38  m  20 36 43.555051 +26 20 14.13968
 2018-Nov-11 06:39  m  20 36 43.512848 +26 20 15.07976
 2018-Nov-11 06:40  m  20 36 43.470685 +26 20 16.01959
 2018-Nov-11 06:41  m  20 36 43.428564 +26 20 16.95917
 2018-Nov-11 06:42  m  20 36 43.386484 +26 20 17.89851
 2018-Nov-11 06:43  m  20 36 43.344446 +26 20 18.83761
 2018-Nov-11 06:44     20 36 43.302449 +26 20 19.77646
 2018-Nov-11 06:45     20 36 43.260494 +26 20 20.71507
 2018-Nov-11 06:46     20 36 43.218581 +26 20 21.65344
 2018-Nov-11 06:47     20 36 43.176710 +26 20 22.59157
 2018-Nov-11 06:48     20 36 43.134881 +26 20 23.52946
 2018-Nov-11 06:49     20 36 43.093095 +26 20 24.46711
 2018-Nov-11 06:50     20 36 43.051351 +26 20 25.40452
 2018-Nov-11 06:51     20 36 43.009650 +26 20 26.34170
 2018-Nov-11 06:52     20 36 42.967993 +26 20 27.27865
 2018-Nov-11 06:53     20 36 42.926378 +26 20 28.21536
 2018-Nov-11 06:54     20 36 42.884806 +26 20 29.15184
 2018-Nov-11 06:55     20 36 42.843278 +26 20 30.08808
 2018-Nov-11 06:56     20 36 42.801794 +26 20 31.02410
 2018-Nov-11 06:57     20 36 42.760353 +26 20 31.95989
 2018-Nov-11 06:58     20 36 42.718956 +26 20 32.89545
 2018-Nov-11 06:59     20 36 42.677603 +26 20 33.83078
 2018-Nov-11 07:00     20 36 42.636295 +26 20 34.76589
 2018-Nov-11 07:01     20 36 42.595031 +26 20 35.70077
 2018-Nov-11 07:02     20 36 42.553811 +26 20 36.63543
 2018-Nov-11 07:03     20 36 42.512636 +26 20 37.56987
 2018-Nov-11 07:04     20 36 42.471506 +26 20 38.50408
 2018-Nov-11 07:05     20 36 42.430421 +26 20 39.43808
 2018-Nov-11 07:06     20 36 42.389381 +26 20 40.37185
 2018-Nov-11 07:07     20 36 42.348386 +26 20 41.30541
 2018-Nov-11 07:08     20 36 42.307437 +26 20 42.23875
 2018-Nov-11 07:09     20 36 42.266533 +26 20 43.17188
 2018-Nov-11 07:10     20 36 42.225675 +26 20 44.10479
 2018-Nov-11 07:11     20 36 42.184863 +26 20 45.03749
 2018-Nov-11 07:12     20 36 42.144097 +26 20 45.96997
 2018-Nov-11 07:13     20 36 42.103377 +26 20 46.90225
 2018-Nov-11 07:14     20 36 42.062704 +26 20 47.83432
 2018-Nov-11 07:15     20 36 42.022077 +26 20 48.76617
 2018-Nov-11 07:16     20 36 41.981496 +26 20 49.69782
 2018-Nov-11 07:17     20 36 41.940962 +26 20 50.62927
 2018-Nov-11 07:18     20 36 41.900476 +26 20 51.56050
 2018-Nov-11 07:19     20 36 41.860036 +26 20 52.49154
 2018-Nov-11 07:20     20 36 41.819643 +26 20 53.42237
 2018-Nov-11 07:21     20 36 41.779298 +26 20 54.35300
 2018-Nov-11 07:22     20 36 41.739000 +26 20 55.28343
 2018-Nov-11 07:23     20 36 41.698749 +26 20 56.21366
 2018-Nov-11 07:24     20 36 41.658547 +26 20 57.14370
 2018-Nov-11 07:25     20 36 41.618392 +26 20 58.07354
 2018-Nov-11 07:26     20 36 41.578285 +26 20 59.00318
 2018-Nov-11 07:27     20 36 41.538226 +26 20 59.93262
 2018-Nov-11 07:28     20 36 41.498216 +26 21 00.86188
 2018-Nov-11 07:29     20 36 41.458254 +26 21 01.79094
 2018-Nov-11 07:30     20 36 41.418340 +26 21 02.71982
 2018-Nov-11 07:31     20 36 41.378475 +26 21 03.64850
 2018-Nov-11 07:32     20 36 41.338659 +26 21 04.57700
 2018-Nov-11 07:33     20 36 41.298891 +26 21 05.50531
 2018-Nov-11 07:34     20 36 41.259173 +26 21 06.43343
 2018-Nov-11 07:35     20 36 41.219504 +26 21 07.36137
 2018-Nov-11 07:36     20 36 41.179884 +26 21 08.28912
 2018-Nov-11 07:37     20 36 41.140313 +26 21 09.21670
 2018-Nov-11 07:38     20 36 41.100792 +26 21 10.14409
 2018-Nov-11 07:39     20 36 41.061321 +26 21 11.07131
 2018-Nov-11 07:40     20 36 41.021899 +26 21 11.99835
 2018-Nov-11 07:41     20 36 40.982527 +26 21 12.92521
 2018-Nov-11 07:42     20 36 40.943206 +26 21 13.85189
 2018-Nov-11 07:43     20 36 40.903934 +26 21 14.77840
 2018-Nov-11 07:44     20 36 40.864713 +26 21 15.70474
 2018-Nov-11 07:45     20 36 40.825541 +26 21 16.63091
 2018-Nov-11 07:46     20 36 40.786421 +26 21 17.55691
 2018-Nov-11 07:47     20 36 40.747351 +26 21 18.48273
 2018-Nov-11 07:48     20 36 40.708331 +26 21 19.40840
 2018-Nov-11 07:49     20 36 40.669363 +26 21 20.33389
 2018-Nov-11 07:50     20 36 40.630445 +26 21 21.25922
 2018-Nov-11 07:51     20 36 40.591578 +26 21 22.18438
 2018-Nov-11 07:52     20 36 40.552763 +26 21 23.10939
 2018-Nov-11 07:53     20 36 40.513998 +26 21 24.03423
 2018-Nov-11 07:54     20 36 40.475285 +26 21 24.95891
 2018-Nov-11 07:55     20 36 40.436624 +26 21 25.88343
 2018-Nov-11 07:56     20 36 40.398014 +26 21 26.80780
 2018-Nov-11 07:57     20 36 40.359456 +26 21 27.73201
 2018-Nov-11 07:58     20 36 40.320949 +26 21 28.65606
